NORAD_CAT_ID,OBJECT_NAME,OBJECT_TYPE,EPOCH,MEAN_MOTION,ECCENTRICITY,INCLINATION,RA_OF_ASC_NODE,ARG_OF_PERICENTER,MEAN_ANOMALY,BSTAR,MEAN_MOTION_DOT,MEAN_MOTION_DDOT,TLE_LINE0,TLE_LINE1,TLE_LINE2,SEMIMAJOR_AXIS,PERIOD,APOGEE,PERIGEE,DECAYED
56456.0,STARLINK-5995,PAYLOAD,2023-12-28 03:49:26,14.98328903,0.0002644,70.0002,7.9691,258.2722,101.8141,1.9167e-05,1.36e-06,0.0,0 STARLINK-5995,1 56456U 23064J   23362.15932905  .00000136  00000-0  19167-4 0  9999,2 56456  70.0002   7.9691 0002644 258.2722 101.8141 14.98328903 35396,6950.196,96.107,573.899,570.224,0.0
56456.0,STARLINK-5995,PAYLOAD,2023-12-28 10:13:58,14.98328705,0.0002641,70.0003,7.296,258.3829,101.7034,1.5854e-05,9.6e-07,0.0,0 STARLINK-5995,1 56456U 23064J   23362.42636948  .00000096  00000-0  15854-4 0  9991,2 56456  70.0003   7.2960 0002641 258.3829 101.7034 14.98328705 35070,6950.197,96.107,573.897,570.226,0.0
56456.0,STARLINK-5995,PAYLOAD,2023-12-29 03:51:27,14.98329639,0.0002674,70.0002,5.445,259.2919,100.7939,-3.5957e-06,-1.36e-06,0.0,0 STARLINK-5995,1 56456U 23064J   23363.16072927 -.00000136  00000-0 -35957-5 0  9998,2 56456  70.0002   5.4450 0002674 259.2919 100.7939 14.98329639 35541,6950.194,96.107,573.917,570.201,0.0
56456.0,STARLINK-5995,PAYLOAD,2023-12-29 10:15:59,14.98328932,0.0002689,70.0003,4.7717,260.7982,99.2873,-1.201e-05,-2.36e-06,0.0,0 STARLINK-5995,1 56456U 23064J   23363.42777018 -.00000236  00000-0 -12010-4 0  9995,2 56456  70.0003   4.7717 0002689 260.7982  99.2873 14.98328932 35222,6950.196,96.107,573.93,570.192,0.0
56456.0,STARLINK-5995,PAYLOAD,2023-12-30 03:53:27,14.98331498,0.0002772,70.0002,2.9199,263.0868,96.9976,1.8107e-05,1.23e-06,0.0,0 STARLINK-5995,1 56456U 23064J   23364.16212714  .00000123  00000-0  18107-4 0  9990,2 56456  70.0002   2.9199 0002772 263.0868  96.9976 14.98331498 35697,6950.188,96.107,573.98,570.127,0.0
56456.0,STARLINK-5995,PAYLOAD,2023-12-30 10:17:59,14.98333237,0.0002724,70.0003,2.2456,266.7183,93.3665,3.1889e-05,2.88e-06,0.0,0 STARLINK-5995,1 56456U 23064J   23364.42916568  .00000288  00000-0  31889-4 0  9991,2 56456  70.0003   2.2456 0002724 266.7183  93.3665 14.98333237 35378,6950.183,96.107,573.941,570.155,0.0
56456.0,STARLINK-5995,PAYLOAD,2023-12-31 03:55:28,14.98326948,0.0002723,70.0004,0.3957,259.1313,100.9539,-4.7549e-06,-1.5e-06,0.0,0 STARLINK-5995,1 56456U 23064J   23365.16353002 -.00000150  00000-0 -47549-5 0  9992,2 56456  70.0004   0.3957 0002723 259.1313 100.9539 14.98326948 35842,6950.202,96.107,573.96,570.175,0.0
56456.0,STARLINK-5995,PAYLOAD,2023-12-31 08:43:53,14.98324765,0.0002778,70.0005,359.8908,260.8823,99.2022,-2.0236e-05,-3.34e-06,0.0,0 STARLINK-5995,1 56456U 23064J   23365.36381238 -.00000334  00000-0 -20236-4 0  9993,2 56456  70.0005 359.8908 0002778 260.8823  99.2022 14.98324765 35512,6950.209,96.107,574.005,570.143,0.0
56456.0,STARLINK-5995,PAYLOAD,2024-01-01 03:57:29,14.98332506,0.0002845,69.9996,357.8686,265.2622,94.8212,-5.025e-06,-1.53e-06,0.0,0 STARLINK-5995,1 56456U 23064J   24001.16492700 -.00000153  00000-0 -50250-5 0  9995,2 56456  69.9996 357.8686 0002845 265.2622  94.8212 14.98332506 35996,6950.185,96.107,574.027,570.073,0.0
56456.0,STARLINK-5995,PAYLOAD,2024-01-01 10:22:01,14.98332164,0.0002578,70.0004,357.1948,267.5291,92.5573,4.426e-05,4.35e-06,0.0,0 STARLINK-5995,1 56456U 23064J   24001.43196601  .00000435  00000-0  44260-4 0  9990,2 56456  70.0004 357.1948 0002578 267.5291  92.5573 14.98332164 35673,6950.186,96.107,573.843,570.259,0.0
56456.0,STARLINK-5995,PAYLOAD,2024-01-02 03:59:30,14.98327119,0.0002792,70.0002,355.3441,264.8471,95.2369,3.7682e-05,3.57e-06,0.0,0 STARLINK-5995,1 56456U 23064J   24002.16632785  .00000357  00000-0  37682-4 0  9992,2 56456  70.0002 355.3441 0002792 264.8471  95.2369 14.98327119 36147,6950.202,96.107,574.007,570.126,0.0
56456.0,STARLINK-5995,PAYLOAD,2024-01-02 08:47:54,14.98329311,0.0002903,70.0,354.8379,274.9957,85.087,6.4095e-05,6.72e-06,0.0,0 STARLINK-5995,1 56456U 23064J   24002.36660645  .00000672  00000-0  64095-4 0  9998,2 56456  70.0000 354.8379 0002903 274.9957  85.0870 14.98329311 35817,6950.195,96.107,574.078,570.042,0.0
56456.0,STARLINK-5995,PAYLOAD,2024-01-03 04:01:31,14.98330019,0.0003033,69.9998,352.8189,270.8553,89.2259,-5.2251e-05,-7.16e-06,0.0,0 STARLINK-5995,1 56456U 23064J   24003.16772854 -.00000716  00000-0 -52251-4 0  9995,2 56456  69.9998 352.8189 0003033 270.8553  89.2259 14.98330019 36296,6950.193,96.107,574.166,569.95,0.0
56456.0,STARLINK-5995,PAYLOAD,2024-01-03 08:49:55,14.98332481,0.0002902,70.0001,352.314,268.4538,91.6289,-1.1105e-05,-2.25e-06,0.0,0 STARLINK-5995,1 56456U 23064J   24003.36800572 -.00000225  00000-0 -11105-4 0  9994,2 56456  70.0001 352.3140 0002902 268.4538  91.6289 14.98332481 35964,6950.185,96.107,574.067,570.033,0.0
56456.0,STARLINK-5995,PAYLOAD,2024-01-03 23:15:08,14.98326663,0.0002819,70.0,350.7984,266.0772,94.0065,1.6977e-05,1.1e-06,0.0,0 STARLINK-5995,1 56456U 23064J   24003.96884796  .00000110  00000-0  16977-4 0  9993,2 56456  70.0000 350.7984 0002819 266.0772  94.0065 14.98326663 36057,6950.203,96.107,574.027,570.109,0.0
56456.0,STARLINK-5995,PAYLOAD,2024-01-04 04:03:32,14.9832733,0.0002978,69.9999,350.2936,270.8635,89.2183,1.5211e-05,8.8e-07,0.0,0 STARLINK-5995,1 56456U 23064J   24004.16912801  .00000088  00000-0  15211-4 0  9999,2 56456  69.9999 350.2936 0002978 270.8635  89.2183 14.98327330 36442,6950.201,96.107,574.136,569.996,0.0
56456.0,STARLINK-5995,PAYLOAD,2024-01-04 08:51:56,14.98332077,0.000286,70.0002,349.789,267.2141,92.869,3.257e-05,2.96e-06,0.0,0 STARLINK-5995,1 56456U 23064J   24004.36940431  .00000296  00000-0  32570-4 0  9999,2 56456  70.0002 349.7890 0002860 267.2141  92.8690 14.98332077 36115,6950.186,96.107,574.039,570.064,0.0
56456.0,STARLINK-5995,PAYLOAD,2024-01-05 04:05:33,14.98330363,0.0002726,70.0007,347.7704,258.822,101.2633,2.0735e-05,1.54e-06,0.0,0 STARLINK-5995,1 56456U 23064J   24005.17052488  .00000154  00000-0  20735-4 0  9998,2 56456  70.0007 347.7704 0002726 258.8220 101.2633 14.98330363 36597,6950.192,96.107,573.951,570.162,0.0
56456.0,STARLINK-5995,PAYLOAD,2024-01-05 08:53:57,14.98329245,0.0002774,70.0005,347.2649,262.9326,97.1518,5.4327e-06,-2.8e-07,0.0,0 STARLINK-5995,1 56456U 23064J   24005.37080615 -.00000028  00000-0  54327-5 0  9999,2 56456  70.0005 347.2649 0002774 262.9326  97.1518 14.98329245 36260,6950.195,96.107,573.988,570.132,0.0
56456.0,STARLINK-5995,PAYLOAD,2024-01-06 04:07:34,14.98331204,0.0002611,70.0004,345.2447,261.4473,98.639,1.2996e-05,6.2e-07,0.0,0 STARLINK-5995,1 56456U 23064J   24006.17192434  .00000062  00000-0  12996-4 0  9993,2 56456  70.0004 345.2447 0002611 261.4473  98.6390 14.98331204 36745,6950.189,96.107,573.869,570.239,0.0
56456.0,STARLINK-5995,PAYLOAD,2024-01-06 08:55:58,14.98333953,0.0002785,70.0004,344.7398,264.6142,95.4699,3.0869e-05,2.75e-06,0.0,0 STARLINK-5995,1 56456U 23064J   24006.37220149  .00000275  00000-0  30869-4 0  9995,2 56456  70.0004 344.7398 0002785 264.6142  95.4699 14.98333953 36418,6950.181,96.107,573.981,570.11,0.0
56456.0,STARLINK-5995,PAYLOAD,2024-01-07 04:09:35,14.98329229,0.0002699,70.0004,342.719,259.332,100.7535,-6.1921e-06,-1.67e-06,0.0,0 STARLINK-5995,1 56456U 23064J   24007.17332423 -.00000167  00000-0 -61921-5 0  9999,2 56456  70.0004 342.7190 0002699 259.3320 100.7535 14.98329229 36891,6950.195,96.107,573.936,570.184,0.0
56456.0,STARLINK-5995,PAYLOAD,2024-01-07 08:57:59,14.9833532,0.0002762,70.0002,342.2134,266.1048,93.9795,-5.1306e-05,-7.05e-06,0.0,0 STARLINK-5995,1 56456U 23064J   24007.37360120 -.00000705  00000-0 -51306-4 0  9999,2 56456  70.0002 342.2134 0002762 266.1048  93.9795 14.98335320 36560,6950.176,96.107,573.961,570.122,0.0
56456.0,STARLINK-5995,PAYLOAD,2024-01-08 04:11:36,14.98328997,0.0002647,70.0004,340.1938,267.9374,92.1481,-2.4273e-05,-3.83e-06,0.0,0 STARLINK-5995,1 56456U 23064J   24008.17472472 -.00000383  00000-0 -24273-4 0  9997,2 56456  70.0004 340.1938 0002647 267.9374  92.1481 14.98328997 37043,6950.196,96.107,573.901,570.221,0.0
56456.0,STARLINK-5995,PAYLOAD,2024-01-08 09:00:00,14.98330565,0.000264,70.0002,339.6881,269.1134,90.9723,-2.7562e-06,-1.26e-06,0.0,0 STARLINK-5995,1 56456U 23064J   24008.37500322 -.00000126  00000-0 -27562-5 0  9995,2 56456  70.0002 339.6881 0002640 269.1134  90.9723 14.98330565 36714,6950.191,96.107,573.891,570.221,0.0
56456.0,STARLINK-5995,PAYLOAD,2024-01-09 04:13:37,14.98306162,0.0002703,70.0002,337.6682,268.9031,91.1819,0.000329,3.832e-05,0.0,0 STARLINK-5995,1 56456U 23064J   24009.17612952  .00003832  00000-0  32900-3 0  9992,2 56456  70.0002 337.6682 0002703 268.9031  91.1819 14.98306162 37192,6950.267,96.109,574.01,570.253,0.0
56456.0,STARLINK-5995,PAYLOAD,2024-01-09 07:25:53,14.98329975,0.0002516,70.0003,337.3316,257.6326,102.4552,2.3552e-05,1.88e-06,0.0,0 STARLINK-5995,1 56456U 23064J   24009.30964299  .00000188  00000-0  23552-4 0  9996,2 56456  70.0003 337.3316 0002516 257.6326 102.4552 14.98329975 37218,6950.193,96.107,573.807,570.309,0.0
56456.0,STARLINK-5995,PAYLOAD,2024-01-09 21:51:05,14.98329927,0.0002764,70.0003,335.8164,271.1886,88.8957,1.8744e-05,1.31e-06,0.0,0 STARLINK-5995,1 56456U 23064J   24009.91048326  .00000131  00000-0  18744-4 0  9992,2 56456  70.0003 335.8164 0002764 271.1886  88.8957 14.98329927 36941,6950.193,96.107,573.979,570.137,0.0
56456.0,STARLINK-5995,PAYLOAD,2024-01-10 07:27:53,14.98334853,0.0002735,70.0004,334.8068,270.4673,89.6173,7.2946e-05,7.78e-06,0.0,0 STARLINK-5995,1 56456U 23064J   24010.31103828  .00000778  00000-0  72946-4 0  9998,2 56456  70.0004 334.8068 0002735 270.4673  89.6173 14.98334853 37368,6950.178,96.107,573.944,570.142,0.0
56456.0,STARLINK-5995,PAYLOAD,2024-01-11 02:41:31,14.98327572,0.000263,70.0008,332.7889,264.1305,95.9554,-1.2114e-05,-2.37e-06,0.0,0 STARLINK-5995,1 56456U 23064J   24011.11216477 -.00000237  00000-0 -12114-4 0  9995,2 56456  70.0008 332.7889 0002630 264.1305  95.9554 14.98327572 37482,6950.2,96.107,573.893,570.237,0.0
